STARLINK-37075          
1 68255U 26054Z   26087.83335647  .00049569  00000+0  25360-3 0  9996
2 68255  53.1592 216.5417 0000959  82.5408 290.2108 15.80841483  2993
STARLINK-36333          
1 68256U 26054AA  26087.83335647  .00090767  00000+0  45951-3 0  9991
2 68256  53.1591 216.5241 0001045  63.7223 317.5737 15.80829417  3031
STARLINK-36745          
1 68257U 26054AB  26087.83335647  .00026391  00000+0  13692-3 0  9991
2 68257  53.1592 216.5059 0001458  64.0507 325.7577 15.80860719  2994
STARLINK-36890          
1 68258U 26054AC  26087.83335647  .00068091  00000+0  34628-3 0  9997
2 68258  53.1590 216.4976 0001296  63.7484 330.3569 15.80843090  2996
STARLINK-36323          
1 68259U 26054AD  26087.83335647  .00021019  00000+0  10990-3 0  9993
2 68259  53.1590 216.5153 0001208  78.4932 307.0851 15.80847321  3031
STARLINK-37056          
1 68260U 26054AE  26087.83335647  .00196343  00000+0  97927-3 0  9993
2 68260  53.1590 216.4885 0001425  77.6967 320.6922 15.80796928  2994
TEN-KOH 2               
1 68261U 25241B   26087.71907339  .00009978  00000+0  43516-3 0  9993
2 68261  51.6385 342.3896 0004458 225.1685 134.8931 15.22741984  2642
STARLINK-37162          
1 68262U 26055A   26087.83335647 -.01087597  36793-3 -26974-2 0  9994
2 68262  53.1581 241.6872 0000709  55.3988 346.5823 15.95233118  2712
STARLINK-37156          
1 68263U 26055B   26087.83335647 -.01093995  37221-3 -27000-2 0  9992
2 68263  53.1580 241.6824 0000850  54.2191 350.2511 15.95324745  2713
STARLINK-37163          
1 68264U 26055C   26087.83335647 -.01103836  37907-3 -26956-2 0  9999
2 68264  53.1578 241.6686 0000811  56.9293 353.8389 15.95522876  2713
STARLINK-37133          
1 68265U 26055D   26087.83335647 -.01096303  37401-3 -26914-2 0  9993
2 68265  53.1579 241.6755 0000714  55.3722 352.3218 15.95423692  2715
STARLINK-37042          
1 68266U 26055E   26087.83335647 -.01103918  37951-3 -26811-2 0  9991
2 68266  53.1577 241.6608 0000876  55.1281 359.6225 15.95623727  2717
STARLINK-37103          
1 68267U 26055F   26087.83335647 -.01113091  38566-3 -26884-2 0  9998
2 68267  53.1580 241.6534 0000826  56.0570   2.1231 15.95728034  2710
STARLINK-36999          
1 68268U 26055G   26087.83335647 -.01117190  38864-3 -26835-2 0  9990
2 68268  53.1579 241.6472 0000795  56.8440   4.4344 15.95830044  2714
STARLINK-36962          
1 68269U 26055H   26087.83335647 -.01118634  38996-3 -26721-2 0  9995
2 68269  53.1579 241.6403 0000852  57.0441   7.5157 15.95932090  2717
STARLINK-37028          
1 68270U 26055J   26087.83335647 -.01131260  39878-3 -26739-2 0  9996
2 68270  53.1578 241.6191 0000896  54.5370  20.0146 15.96128299  2710
